QIANFAN-17              
1 60395U 24140S   25203.56629600  .00000116  00000+0  16179-3 0  9994
2 60395  88.9856 314.2062 0013103 256.0682 103.9012 13.50958518 47950
QIANFAN-18              
1 60396U 24140T   25203.47173656  .00000116  00000+0  16111-3 0  9996
2 60396  88.9848 313.7606 0012802 236.5266 123.4662 13.50954010 48172
QIANFAN-19              
1 61552U 24185A   25203.23178206  .00000343  00000+0  17274-3 0  9993
2 61552  88.9821  94.4035 0009188  55.0009 305.2039 14.14106858 49381
QIANFAN-20              
1 61553U 24185B   25203.20676360  .00000305  00000+0  16924-3 0  9994
2 61553  88.9821  94.5853 0008441  81.7609 278.4532 14.08659754 49283
QIANFAN-21              
1 61554U 24185C   25202.89414058  .00000462  00000+0  20121-3 0  9991
2 61554  88.9735  93.8458 0012925 105.7348 254.5270 14.22348672 49521
QIANFAN-22              
1 61555U 24185D   25202.93366564  .00000230  00000+0  18750-3 0  9993
2 61555  88.9807  95.0187 0009107  76.0053 284.2130 13.86232103 49015
QIANFAN-23              
1 61556U 24185E   25203.47897256  .00000475  00000+0  23338-3 0  9990
2 61556  88.9812  94.2512 0010273  63.4812 296.7427 14.16076588 49478
QIANFAN-24              
1 61557U 24185F   25202.87775530  .00000522  00000+0  22300-3 0  9995
2 61557  88.9794  93.9608 0011729  54.1956 306.0324 14.23551768 49559
